{
  "type": "FeatureCollection",
  "features": [
    {
      "type": "Feature",
      "properties": {
        "norad_id": 66575,
        "name": "STARLINK-35810",
        "group": "last-30-days",
        "lat": 15.037411165859197,
        "lon": 54.02531617516526,
        "alt_km": 458.64323586356477,
        "timestamp": "2025-12-27T02:10:14.905348+00:00",
        "meta_object_name": "STARLINK-35810",
        "meta_object_id": "2025-268U",
        "meta_epoch": "2025-12-26T20:00:01.999008",
        "meta_mean_motion": 15.36294356,
        "meta_eccentricity": 0.0001518,
        "meta_inclination": 43.0019,
        "meta_ra_of_asc_node": 38.7412,
        "meta_arg_of_pericenter": 271.7088,
        "meta_mean_anomaly": 127.6884,
        "meta_ephemeris_type": 0,
        "meta_classification_type": "U",
        "meta_norad_cat_id": 66575,
        "meta_element_set_no": 999,
        "meta_rev_at_epoch": 605,
        "meta_bstar": -0.064856,
        "meta_mean_motion_dot": -0.02112386,
        "meta_mean_motion_ddot": 0,
        "tle_line1": "1 66575U 25268U   25360.83335647 -.02112386  00000+0 -64856-1 0  9991",
        "tle_line2": "2 66575  43.0019  38.7412 0001518 271.7088 127.6884 15.36294356  6052"
      },
      "geometry": {
        "type": "Point",
        "coordinates": [
          54.02531617516526,
          15.037411165859197
        ]
      }
    },
    {
      "type": "Feature",
      "properties": {
        "norad_id": 66576,
        "name": "STARLINK-35814",
        "group": "last-30-days",
        "lat": 24.984943261433138,
        "lon": 67.23343540224977,
        "alt_km": 454.79845861757076,
        "timestamp": "2025-12-27T02:10:14.905358+00:00",
        "meta_object_name": "STARLINK-35814",
        "meta_object_id": "2025-268V",
        "meta_epoch": "2025-12-26T20:00:01.999008",
        "meta_mean_motion": 15.37136284,
        "meta_eccentricity": 0.0001491,
        "meta_inclination": 43.0019,
        "meta_ra_of_asc_node": 38.7039,
        "meta_arg_of_pericenter": 274.5741,
        "meta_mean_anomaly": 139.9467,
        "meta_ephemeris_type": 0,
        "meta_classification_type": "U",
        "meta_norad_cat_id": 66576,
        "meta_element_set_no": 999,
        "meta_rev_at_epoch": 605,
        "meta_bstar": -0.063266,
        "meta_mean_motion_dot": -0.02117356,
        "meta_mean_motion_ddot": 0,
        "tle_line1": "1 66576U 25268V   25360.83335647 -.02117356  00000+0 -63266-1 0  9998",
        "tle_line2": "2 66576  43.0019  38.7039 0001491 274.5741 139.9467 15.37136284  6054"
      },
      "geometry": {
        "type": "Point",
        "coordinates": [
          67.23343540224977,
          24.984943261433138
        ]
      }
    },
    {
      "type": "Feature",
      "properties": {
        "norad_id": 66577,
        "name": "STARLINK-35815",
        "group": "last-30-days",
        "lat": 37.45623158851126,
        "lon": 92.47047417424538,
        "alt_km": 448.8512205260595,
        "timestamp": "2025-12-27T02:10:14.905369+00:00",
        "meta_object_name": "STARLINK-35815",
        "meta_object_id": "2025-268W",
        "meta_epoch": "2025-12-26T20:00:01.999008",
        "meta_mean_motion": 15.38568192,
        "meta_eccentricity": 0.0001653,
        "meta_inclination": 43.0005,
        "meta_ra_of_asc_node": 38.6483,
        "meta_arg_of_pericenter": 277.4838,
        "meta_mean_anomaly": 160.5185,
        "meta_ephemeris_type": 0,
        "meta_classification_type": "U",
        "meta_norad_cat_id": 66577,
        "meta_element_set_no": 999,
        "meta_rev_at_epoch": 605,
        "meta_bstar": -0.058694,
        "meta_mean_motion_dot": -0.02030272,
        "meta_mean_motion_ddot": 0,
        "tle_line1": "1 66577U 25268W   25360.83335647 -.02030272  00000+0 -58694-1 0  9999",
        "tle_line2": "2 66577  43.0005  38.6483 0001653 277.4838 160.5185 15.38568192  6056"
      },
      "geometry": {
        "type": "Point",
        "coordinates": [
          92.47047417424538,
          37.45623158851126
        ]
      }
    },
    {
      "type": "Feature",
      "properties": {
        "norad_id": 66578,
        "name": "STARLINK-35743",
        "group": "last-30-days",
        "lat": 41.73129236281458,
        "lon": 110.3053154073615,
        "alt_km": 445.6436926291626,
        "timestamp": "2025-12-27T02:10:14.905379+00:00",
        "meta_object_name": "STARLINK-35743",
        "meta_object_id": "2025-268X",
        "meta_epoch": "2025-12-26T20:00:01.999008",
        "meta_mean_motion": 15.39386717,
        "meta_eccentricity": 0.0001391,
        "meta_inclination": 43.0004,
        "meta_ra_of_asc_node": 38.6144,
        "meta_arg_of_pericenter": 283.9267,
        "meta_mean_anomaly": 167.6819,
        "meta_ephemeris_type": 0,
        "meta_classification_type": "U",
        "meta_norad_cat_id": 66578,
        "meta_element_set_no": 999,
        "meta_rev_at_epoch": 594,
        "meta_bstar": -0.056413,
        "meta_mean_motion_dot": -0.02007639,
        "meta_mean_motion_ddot": 0,
        "tle_line1": "1 66578U 25268X   25360.83335647 -.02007639  00000+0 -56413-1 0  9998",
        "tle_line2": "2 66578  43.0004  38.6144 0001391 283.9267 167.6819 15.39386717  5948"
      },
      "geometry": {
        "type": "Point",
        "coordinates": [
          110.3053154073615,
          41.73129236281458
        ]
      }
    },
    {
      "type": "Feature",
      "properties": {
        "norad_id": 66579,
        "name": "STARLINK-35868",
        "group": "last-30-days",
        "lat": 42.96582616851585,
        "lon": 128.94257962841368,
        "alt_km": 443.11437357502564,
        "timestamp": "2025-12-27T02:10:14.905390+00:00",
        "meta_object_name": "STARLINK-35868",
        "meta_object_id": "2025-268Y",
        "meta_epoch": "2025-12-26T20:00:01.999008",
        "meta_mean_motion": 15.40241945,
        "meta_eccentricity": 0.0001513,
        "meta_inclination": 43.0008,
        "meta_ra_of_asc_node": 38.5825,
        "meta_arg_of_pericenter": 286.7473,
        "meta_mean_anomaly": 177.8809,
        "meta_ephemeris_type": 0,
        "meta_classification_type": "U",
        "meta_norad_cat_id": 66579,
        "meta_element_set_no": 999,
        "meta_rev_at_epoch": 599,
        "meta_bstar": -0.055284,
        "meta_mean_motion_dot": -0.02022543,
        "meta_mean_motion_ddot": 0,
        "tle_line1": "1 66579U 25268Y   25360.83335647 -.02022543  00000+0 -55284-1 0  9995",
        "tle_line2": "2 66579  43.0008  38.5825 0001513 286.7473 177.8809 15.40241945  5996"
      },
      "geometry": {
        "type": "Point",
        "coordinates": [
          128.94257962841368,
          42.96582616851585
        ]
      }
    },
    {
      "type": "Feature",
      "properties": {
        "norad_id": 66580,
        "name": "STARLINK-35872",
        "group": "last-30-days",
        "lat": 41.277949593610444,
        "lon": 146.67985837565178,
        "alt_km": 440.8572088582505,
        "timestamp": "2025-12-27T02:10:14.905400+00:00",
        "meta_object_name": "STARLINK-35872",
        "meta_object_id": "2025-268Z",
        "meta_epoch": "2025-12-26T20:00:01.999008",
        "meta_mean_motion": 15.4108361,
        "meta_eccentricity": 0.0001361,
        "meta_inclination": 43.0008,
        "meta_ra_of_asc_node": 38.553,
        "meta_arg_of_pericenter": 285.1298,
        "meta_mean_anomaly": 191.9691,
        "meta_ephemeris_type": 0,
        "meta_classification_type": "U",
        "meta_norad_cat_id": 66580,
        "meta_element_set_no": 999,
        "meta_rev_at_epoch": 605,
        "meta_bstar": -0.0541,
        "meta_mean_motion_dot": -0.02034296,
        "meta_mean_motion_ddot": 0,
        "tle_line1": "1 66580U 25268Z   25360.83335647 -.02034296  00000+0 -54100-1 0  9991",
        "tle_line2": "2 66580  43.0008  38.5530 0001361 285.1298 191.9691 15.41083610  6058"
      },
      "geometry": {
        "type": "Point",
        "coordinates": [
          146.67985837565178,
          41.277949593610444
        ]
      }
    },
    {
      "type": "Feature",
      "properties": {
        "norad_id": 66581,
        "name": "STARLINK-35744",
        "group": "last-30-days",
        "lat": 37.28309965879318,
        "lon": 162.25361102573635,
        "alt_km": 438.9837252400712,
        "timestamp": "2025-12-27T02:10:14.905426+00:00",
        "meta_object_name": "STARLINK-35744",
        "meta_object_id": "2025-268AA",
        "meta_epoch": "2025-12-26T20:00:01.999008",
        "meta_mean_motion": 15.41923262,
        "meta_eccentricity": 0.0001347,
        "meta_inclination": 43.0002,
        "meta_ra_of_asc_node": 38.5225,
        "meta_arg_of_pericenter": 285.7565,
        "meta_mean_anomaly": 203.2526,
        "meta_ephemeris_type": 0,
        "meta_classification_type": "U",
        "meta_norad_cat_id": 66581,
        "meta_element_set_no": 999,
        "meta_rev_at_epoch": 605,
        "meta_bstar": -0.052643,
        "meta_mean_motion_dot": -0.0203607,
        "meta_mean_motion_ddot": 0,
        "tle_line1": "1 66581U 25268AA  25360.83335647 -.02036070  00000+0 -52643-1 0  9994",
        "tle_line2": "2 66581  43.0002  38.5225 0001347 285.7565 203.2526 15.41923262  6051"
      },
      "geometry": {
        "type": "Point",
        "coordinates": [
          162.25361102573635,
          37.28309965879318
        ]
      }
    }
  ]
}